0 COSMOS 2251 DEB
1 34791U 93036AAU 13281.32117481  .00005880  00000-0  11101-2 0  8599
2 34791 074.0296 027.7991 0072157 225.4019 165.4827 14.62992411247212
0 COSMOS 2251 DEB
1 34791U 93036AAU 13282.27830525  .00010848  00000-0  20404-2 0  8603
2 34791 074.0294 025.9630 0072094 223.3986 166.4150 14.63014956247355
0 COSMOS 2251 DEB
1 34791U 93036AAU 13285.72209763  .00007456  00000-0  14037-2 0  8628
2 34791 074.0297 019.3556 0071945 216.2011 304.3942 14.63062990247854
0 COSMOS 2251 DEB
1 34791U 93036AAU 13287.34514944  .00007602  00000-0  14306-2 0  8631
2 34791 074.0301 016.2415 0071795 212.6823 213.1223 14.63086039248090
0 COSMOS 2251 DEB
1 34791U 93036AAU 13288.22769627  .00011217  00000-0  21061-2 0  8643
2 34791 074.0304 014.5483 0071725 210.8461 181.5423 14.63105299248225
0 COSMOS 2251 DEB
1 34791U 93036AAU 13289.60178362  .00009969  00000-0  18718-2 0  8653
2 34791 074.0306 011.9122 0071637 207.9956 219.0453 14.63130157248429
0 COSMOS 2251 DEB
1 34791U 93036AAU 13292.19338330  .00007667  00000-0  14405-2 0  8667
2 34791 074.0298 006.9392 0071470 202.5571 189.7107 14.63172321248801
0 COSMOS 2251 DEB
1 34791U 93036AAU 13293.29334642  .00008310  00000-0  15600-2 0  8676
2 34791 074.0301 004.8287 0071434 200.5087 223.3794 14.63189336248964
0 COSMOS 2251 DEB
1 34791U 93036AAU 13295.20158046  .00009498  00000-0  17811-2 0  8686
2 34791 074.0287 001.1659 0071219 196.0804 195.3660 14.63217448249245
